1 11550U 79077D   22285.22999855  .00000772  00000-0  00000-0 0  9996
2 11550  63.1153 127.0002 7281722  48.1160 354.4327  1.98950295313311
1 11550U 79077D   22287.24049663  .00000495  00000-0  00000+0 0  9994
2 11550  63.1161 126.7243 7282772  48.1284 354.4036  1.98955113313384
1 11550U 79077D   22287.24049663  .00000495  00000-0  00000-0 0  9995
2 11550  63.1161 126.7243 7282772  48.1284 354.4036  1.98955113313351
1 11550U 79077D   22287.74311757  .00000431  00000-0  00000-0 0  9996
2 11550  63.1163 126.6553 7283034  48.1316 354.3988  1.98956187313362
1 11550U 79077D   22288.74835800  .00000316  00000-0  00000-0 0  9999
2 11550  63.1167 126.5174 7283555  48.1381 354.3935  1.98958156313386
1 11550U 79077D   22289.25097743  .00000263  00000-0  00000+0 0  9992
2 11550  63.1168 126.4485 7283809  48.1413 354.3930  1.98959047313429
1 11550U 79077D   22289.25097743  .00000263  00000-0  00000-0 0  9993
2 11550  63.1168 126.4485 7283809  48.1413 354.3930  1.98959047313395
1 11550U 79077D   22289.75359684  .00000215  00000-0  00000-0 0  9990
2 11550  63.1170 126.3795 7284070  48.1447 354.3939  1.98959876313400
1 11550U 79077D   22290.25621613  .00000169  00000-0  00000-0 0  9999
2 11550  63.1171 126.3105 7284322  48.1480 354.3960  1.98960628313415
1 11550U 79077D   22290.75883500  .00000126  00000-0  00000-0 0  9992
2 11550  63.1172 126.2415 7284580  48.1514 354.3993  1.98961318313427
1 11550U 79077D   22291.26145382  .00000086  00000-0  00000+0 0  9992
2 11550  63.1174 126.1726 7284832  48.1547 354.4035  1.98961929313469
1 11550U 79077D   22291.26145382  .00000086  00000-0  00000-0 0  9993
2 11550  63.1174 126.1726 7284832  48.1547 354.4035  1.98961929313436
1 11550U 79077D   22292.26668975  .00000010  00000-0  00000-0 0  9999
2 11550  63.1175 126.0344 7285350  48.1616 354.4139  1.98962930313455
1 11550U 79077D   22292.76930661 -.00000027  00000-0  00000-0 0  9997
2 11550  63.1176 125.9655 7285611  48.1650 354.4194  1.98963319313461
1 11550U 79077D   22293.27192219 -.00000063  00000-0  00000+0 0  9992
2 11550  63.1176 125.8963 7285870  48.1685 354.4248  1.98963640313509
1 11550U 79077D   22293.27192219 -.00000063  00000-0  00000-0 0  9993
2 11550  63.1176 125.8963 7285870  48.1685 354.4248  1.98963640313475
1 11550U 79077D   22294.77975965 -.00000175  00000-0  00000-0 0  9990
2 11550  63.1177 125.6893 7286664  48.1791 354.4368  1.98964185313508
1 11550U 79077D   22295.28236730 -.00000214  00000-0  00000+0 0  9990
2 11550  63.1175 125.6202 7286916  48.1826 354.4384  1.98964258313542
1 11550U 79077D   22295.28236730 -.00000214  00000-0  00000-0 0  9991
2 11550  63.1175 125.6202 7286916  48.1826 354.4384  1.98964258313519
1 11550U 79077D   22295.78497337 -.00000254  00000-0  00000-0 0  9992
2 11550  63.1174 125.5511 7287188  48.1863 354.4385  1.98964256313523
1 11550U 79077D   22296.28757658 -.00000295  00000-0  00000-0 0  9998
2 11550  63.1174 125.4820 7287450  48.1899 354.4367  1.98964200313536
1 11550U 79077D   22296.79017749 -.00000337  00000-0  00000-0 0  9991
2 11550  63.1173 125.4128 7287718  48.1936 354.4330  1.98964089313541
1 11550U 79077D   22297.79537212 -.00000425  00000-0  00000+0 0  9991
2 11550  63.1170 125.2744 7288256  48.2012 354.4200  1.98963724313590
1 11550U 79077D   22297.79537212 -.00000425  00000-0  00000-0 0  9992
2 11550  63.1170 125.2744 7288256  48.2012 354.4200  1.98963724313567
1 11550U 79077D   22298.80055939 -.00000516  00000-0  00000-0 0  9997
2 11550  63.1166 125.1362 7288793  48.2085 354.4008  1.98963186313583
1 11550U 79077D   22298.80055955 -.00000516  00000-0  00000-0 0  9995
2 11550  63.1165 125.1360 7288796  48.2085 354.4008  1.98963180313587
1 11550U 79077D   22299.80574454 -.00000607  00000-0  00000+0 0  9996
2 11550  63.1161 124.9976 7289337  48.2161 354.3778  1.98962471313631
1 11550U 79077D   22299.80574454 -.00000607  00000-0  00000-0 0  9997
2 11550  63.1161 124.9976 7289337  48.2161 354.3778  1.98962471313608
1 11550U 79077D   22300.81093321 -.00000692  00000-0  00000-0 0  9994
2 11550  63.1157 124.8592 7289881  48.2236 354.3549  1.98961616313621
1 11550U 79077D   22301.81613228 -.00000767  00000-0  00000+0 0  9991
2 11550  63.1155 124.7209 7290435  48.2312 354.3361  1.98960624313670
1 11550U 79077D   22301.81613228 -.00000767  00000-0  00000-0 0  9992
2 11550  63.1155 124.7209 7290435  48.2312 354.3361  1.98960624313647
1 11550U 79077D   22302.82134696 -.00000826  00000-0  00000-0 0  9997
2 11550  63.1151 124.5824 7291008  48.2389 354.3246  1.98959505313665
1 11550U 79077D   22308.35027129 -.00000932  00000-0  00000+0 0  9990
2 11550  63.1110 123.8186 7294238  48.2831 354.3436  1.98951407313803
1 11550U 79077D   22310.36081506 -.00000985  00000-0  00000+0 0  9991
2 11550  63.1087 123.5395 7295416  48.2993 354.3213  1.98947641313845
1 11550U 79077D   22310.36081506 -.00000985  00000-0  00000-0 0  9992
2 11550  63.1087 123.5395 7295416  48.2993 354.3213  1.98947641313812
1 11550U 79077D   22311.36609040 -.00001016  00000-0  00000-0 0  9998
2 11550  63.1076 123.4000 7295996  48.3072 354.3015  1.98945588313834
1 11550U 79077D   22312.37137413 -.00001041  00000-0  00000+0 0  9997
2 11550  63.1067 123.2605 7296576  48.3150 354.2797  1.98943430313880
1 11550U 79077D   22312.37137413 -.00001041  00000-0  00000-0 0  9998
2 11550  63.1067 123.2605 7296576  48.3150 354.2797  1.98943430313857
1 11550U 79077D   22312.37137449 -.00001041  00000-0  00000-0 0  9997
2 11550  63.1066 123.2606 7296589  48.3151 354.2797  1.98943411313851
1 11550U 79077D   22313.37667116 -.00001050  00000-0  00000-0 0  9997
2 11550  63.1056 123.1209 7297153  48.3227 354.2591  1.98941177313871
1 11550U 79077D   22314.38198528 -.00001035  00000-0  00000-0 0  9998
2 11550  63.1045 122.9811 7297723  48.3304 354.2421  1.98938850313892
1 11550U 79077D   22314.38198593 -.00001035  00000-0  00000+0 0  9999
2 11550  63.1045 122.9812 7297747  48.3305 354.2421  1.98938828313929
1 11550U 79077D   22314.38198593 -.00001035  00000-0  00000-0 0  9990
2 11550  63.1045 122.9812 7297747  48.3305 354.2421  1.98938828313895
1 11550U 79077D   22315.38732025 -.00000992  00000-0  00000-0 0  9996
2 11550  63.1032 122.8412 7298315  48.3384 354.2306  1.98936424313910
1 11550U 79077D   22316.39267507 -.00000920  00000-0  00000+0 0  9996
2 11550  63.1022 122.7012 7298881  48.3460 354.2253  1.98933994313962
1 11550U 79077D   22317.39804985 -.00000820  00000-0  00000-0 0  9994
2 11550  63.1011 122.5611 7299442  48.3535 354.2258  1.98931549313958
1 11550U 79077D   22318.40344319 -.00000697  00000-0  00000+0 0  9998
2 11550  63.1003 122.4209 7300006  48.3609 354.2311  1.98929106314005
1 11550U 79077D   22318.40344319 -.00000697  00000-0  00000-0 0  9999
2 11550  63.1003 122.4209 7300006  48.3609 354.2311  1.98929106313970
1 11550U 79077D   22319.40885167 -.00000558  00000-0  00000-0 0  9997
2 11550  63.0993 122.2806 7300564  48.3683 354.2392  1.98926717313995
1 11550U 79077D   22320.41427098 -.00000408  00000-0  00000+0 0  9998
2 11550  63.0976 122.1402 7301044  48.3759 354.2478  1.98924430314047
1 11550U 79077D   22320.41427249 -.00000408  00000-0  00000-0 0  9997
2 11550  63.0978 122.1404 7301109  48.3759 354.2480  1.98924393314011
1 11550U 79077D   22321.41970090 -.00000253  00000-0  00000-0 0  9993
2 11550  63.0969 121.9998 7301635  48.3830 354.2549  1.98922225314030
1 11550U 79077D   22322.42513373 -.00000097  00000-0  00000+0 0  9997
2 11550  63.0960 121.8594 7302198  48.3905 354.2577  1.98920191314086
1 11550U 79077D   22322.42513373 -.00000097  00000-0  00000-0 0  9998
2 11550  63.0960 121.8594 7302198  48.3905 354.2577  1.98920191314053
1 11550U 79077D   22323.43056747  .00000056  00000-0  00000-0 0  9991
2 11550  63.0951 121.7187 7302764  48.3978 354.2545  1.98918386314079
1 11550U 79077D   22324.43599881  .00000204  00000-0  00000+0 0  9997
2 11550  63.0940 121.5779 7303307  48.4052 354.2441  1.98916861314127
1 11550U 79077D   22324.43599881  .00000204  00000-0  00000-0 0  9998
2 11550  63.0940 121.5779 7303307  48.4052 354.2441  1.98916861314093
1 11550U 79077D   22325.44142679  .00000345  00000-0  00000-0 0  9995
2 11550  63.0930 121.4370 7303857  48.4124 354.2270  1.98915657314113
1 11550U 79077D   22326.44685297  .00000479  00000-0  00000+0 0  9991
2 11550  63.0920 121.2961 7304415  48.4196 354.2052  1.98914801314169
1 11550U 79077D   22326.44685297  .00000479  00000-0  00000-0 0  9992
2 11550  63.0920 121.2961 7304415  48.4196 354.2052  1.98914801314136
1 11550U 79077D   22327.45227990  .00000608  00000-0  00000-0 0  9990
2 11550  63.0913 121.1552 7304960  48.4266 354.1819  1.98914316314159
1 11550U 79077D   22328.45771169  .00000734  00000-0  00000+0 0  9992
2 11550  63.0908 121.0144 7305503  48.4336 354.1610  1.98914216314205
1 11550U 79077D   22328.45771169  .00000734  00000-0  00000-0 0  9993
2 11550  63.0908 121.0144 7305503  48.4336 354.1610  1.98914216314171
1 11550U 79077D   22329.46315191  .00000859  00000-0  00000-0 0  9992
2 11550  63.0903 120.8736 7306058  48.4406 354.1463  1.98914516314195
1 11550U 79077D   22330.46860174  .00000984  00000-0  00000+0 0  9998
2 11550  63.0898 120.7329 7306605  48.4476 354.1399  1.98915205314240
1 11550U 79077D   22330.46860174  .00000984  00000-0  00000-0 0  9999
2 11550  63.0898 120.7329 7306605  48.4476 354.1399  1.98915205314217
1 11550U 79077D   22331.47405924  .00001108  00000-0  00000-0 0  9998
2 11550  63.0895 120.5920 7307161  48.4546 354.1420  1.98916290314237
1 11550U 79077D   22332.47951943  .00001224  00000-0  00000-0 0  9995
2 11550  63.0891 120.4511 7307716  48.4617 354.1501  1.98917749314255
1 11550U 79077D   22332.98224807  .00001277  00000-0  00000+0 0  9990
2 11550  63.0889 120.3807 7307991  48.4652 354.1553  1.98918618314290
1 11550U 79077D   22332.98224807  .00001277  00000-0  00000-0 0  9991
2 11550  63.0889 120.3807 7307991  48.4652 354.1553  1.98918618314267
1 11550U 79077D   22333.48497474  .00001325  00000-0  00000-0 0  9993
2 11550  63.0886 120.3102 7308267  48.4687 354.1604  1.98919561314273
